[{"OBJECT_NAME":"ONEWEB-0411","OBJECT_ID":"2022-012B","EPOCH":"2026-05-03T04:35:14.221248","MEAN_MOTION":13.10372744,"ECCENTRICITY":0.0001601,"INCLINATION":87.8862,"RA_OF_ASC_NODE":45.2173,"ARG_OF_PERICENTER":62.3496,"MEAN_ANOMALY":297.7794,"EPHEMERIS_TYPE":0,"CLASSIFICATION_TYPE":"U","NORAD_CAT_ID":51623,"ELEMENT_SET_NO":999,"REV_AT_EPOCH":20339,"BSTAR":-0.0016484,"MEAN_MOTION_DOT":-5.63e-06,"MEAN_MOTION_DDOT":0.0},{"OBJECT_NAME":"ONEWEB-0415","OBJECT_ID":"2022-012C","EPOCH":"2026-05-03T04:30:27.407808","MEAN_MOTION":13.10370908,"ECCENTRICITY":0.0001658,"INCLINATION":87.8854,"RA_OF_ASC_NODE":45.2199,"ARG_OF_PERICENTER":74.3511,"MEAN_ANOMALY":285.78,"EPHEMERIS_TYPE":0,"CLASSIFICATION_TYPE":"U","NORAD_CAT_ID":51624,"ELEMENT_SET_NO":999,"REV_AT_EPOCH":20339,"BSTAR":-0.0014413000000000002,"MEAN_MOTION_DOT":-4.9e-06,"MEAN_MOTION_DDOT":0.0},{"OBJECT_NAME":"ONEWEB-0416","OBJECT_ID":"2022-012D","EPOCH":"2026-05-03T04:47:11.281632","MEAN_MOTION":13.10374887,"ECCENTRICITY":0.0001432,"INCLINATION":87.8856,"RA_OF_ASC_NODE":45.2363,"ARG_OF_PERICENTER":77.9409,"MEAN_ANOMALY":282.1879,"EPHEMERIS_TYPE":0,"CLASSIFICATION_TYPE":"U","NORAD_CAT_ID":51625,"ELEMENT_SET_NO":999,"REV_AT_EPOCH":20343,"BSTAR":-0.0014358,"MEAN_MOTION_DOT":-4.89e-06,"MEAN_MOTION_DDOT":0.0},{"OBJECT_NAME":"ONEWEB-0422","OBJECT_ID":"2022-012E","EPOCH":"2026-05-03T04:44:02.857056","MEAN_MOTION":13.17650583,"ECCENTRICITY":0.0002301,"INCLINATION":87.9183,"RA_OF_ASC_NODE":14.7963,"ARG_OF_PERICENTER":68.4313,"MEAN_ANOMALY":291.7064,"EPHEMERIS_TYPE":0,"CLASSIFICATION_TYPE":"U","NORAD_CAT_ID":51626,"ELEMENT_SET_NO":999,"REV_AT_EPOCH":20788,"BSTAR":0.00010199,"MEAN_MOTION_DOT":5.2e-07,"MEAN_MOTION_DDOT":0.0},{"OBJECT_NAME":"ONEWEB-0423","OBJECT_ID":"2022-012F","EPOCH":"2026-05-03T04:34:19.975008","MEAN_MOTION":13.17648874,"ECCENTRICITY":0.0001967,"INCLINATION":87.9179,"RA_OF_ASC_NODE":14.8055,"ARG_OF_PERICENTER":80.4628,"MEAN_ANOMALY":279.6726,"EPHEMERIS_TYPE":0,"CLASSIFICATION_TYPE":"U","NORAD_CAT_ID":51627,"ELEMENT_SET_NO":999,"REV_AT_EPOCH":20777,"BSTAR":-0.00010567,"MEAN_MOTION_DOT":-2.8e-07,"MEAN_MOTION_DDOT":0.0},{"OBJECT_NAME":"ONEWEB-0425","OBJECT_ID":"2022-012G","EPOCH":"2026-05-03T05:01:33.191616","MEAN_MOTION":13.10374457,"ECCENTRICITY":0.0001932,"INCLINATION":87.8862,"RA_OF_ASC_NODE":45.2166,"ARG_OF_PERICENTER":88.5611,"MEAN_ANOMALY":271.5737,"EPHEMERIS_TYPE":0,"CLASSIFICATION_TYPE":"U","NORAD_CAT_ID":51628,"ELEMENT_SET_NO":999,"REV_AT_EPOCH":20343,"BSTAR":-0.00036725,"MEAN_MOTION_DOT":-1.16e-06,"MEAN_MOTION_DDOT":0.0},{"OBJECT_NAME":"ONEWEB-0428","OBJECT_ID":"2022-012H","EPOCH":"2026-05-03T04:32:50.881920","MEAN_MOTION":13.10372378,"ECCENTRICITY":0.0001912,"INCLINATION":87.8851,"RA_OF_ASC_NODE":45.2285,"ARG_OF_PERICENTER":77.9956,"MEAN_ANOMALY":282.1386,"EPHEMERIS_TYPE":0,"CLASSIFICATION_TYPE":"U","NORAD_CAT_ID":51629,"ELEMENT_SET_NO":999,"REV_AT_EPOCH":20339,"BSTAR":-0.0016565,"MEAN_MOTION_DOT":-5.66e-06,"MEAN_MOTION_DDOT":0.0},{"OBJECT_NAME":"ONEWEB-0431","OBJECT_ID":"2022-012J","EPOCH":"2026-05-03T05:39:36.656352","MEAN_MOTION":13.10372109,"ECCENTRICITY":0.0001723,"INCLINATION":87.8862,"RA_OF_ASC_NODE":45.2102,"ARG_OF_PERICENTER":59.0025,"MEAN_ANOMALY":301.1272,"EPHEMERIS_TYPE":0,"CLASSIFICATION_TYPE":"U","NORAD_CAT_ID":51630,"ELEMENT_SET_NO":999,"REV_AT_EPOCH":20345,"BSTAR":0.0019648,"MEAN_MOTION_DOT":6.99e-06,"MEAN_MOTION_DDOT":0.0},{"OBJECT_NAME":"ONEWEB-0434","OBJECT_ID":"2022-012K","EPOCH":"2026-05-03T05:06:31.484160","MEAN_MOTION":13.10376214,"ECCENTRICITY":0.0002122,"INCLINATION":87.8861,"RA_OF_ASC_NODE":45.2393,"ARG_OF_PERICENTER":96.1293,"MEAN_ANOMALY":264.0076,"EPHEMERIS_TYPE":0,"CLASSIFICATION_TYPE":"U","NORAD_CAT_ID":51631,"ELEMENT_SET_NO":999,"REV_AT_EPOCH":20343,"BSTAR":0.00027928999999999996,"MEAN_MOTION_DOT":1.1e-06,"MEAN_MOTION_DDOT":0.0},{"OBJECT_NAME":"ONEWEB-0435","OBJECT_ID":"2022-012L","EPOCH":"2026-05-03T05:18:17.118144","MEAN_MOTION":13.10380538,"ECCENTRICITY":0.0002053,"INCLINATION":87.8865,"RA_OF_ASC_NODE":45.2264,"ARG_OF_PERICENTER":71.8019,"MEAN_ANOMALY":288.3332,"EPHEMERIS_TYPE":0,"CLASSIFICATION_TYPE":"U","NORAD_CAT_ID":51632,"ELEMENT_SET_NO":999,"REV_AT_EPOCH":20342,"BSTAR":-0.0016666,"MEAN_MOTION_DOT":-5.69e-06,"MEAN_MOTION_DDOT":0.0},{"OBJECT_NAME":"ONEWEB-0436","OBJECT_ID":"2022-012M","EPOCH":"2026-05-03T04:22:09.760224","MEAN_MOTION":13.1764769,"ECCENTRICITY":0.0001926,"INCLINATION":87.9185,"RA_OF_ASC_NODE":14.7867,"ARG_OF_PERICENTER":74.5727,"MEAN_ANOMALY":285.5617,"EPHEMERIS_TYPE":0,"CLASSIFICATION_TYPE":"U","NORAD_CAT_ID":51633,"ELEMENT_SET_NO":999,"REV_AT_EPOCH":20775,"BSTAR":9.4313e-05,"MEAN_MOTION_DOT":4.9e-07,"MEAN_MOTION_DDOT":0.0},{"OBJECT_NAME":"ONEWEB-0438","OBJECT_ID":"2022-012N","EPOCH":"2026-05-03T04:54:21.911328","MEAN_MOTION":13.10375524,"ECCENTRICITY":0.0001874,"INCLINATION":87.8858,"RA_OF_ASC_NODE":45.2321,"ARG_OF_PERICENTER":84.2354,"MEAN_ANOMALY":275.8987,"EPHEMERIS_TYPE":0,"CLASSIFICATION_TYPE":"U","NORAD_CAT_ID":51634,"ELEMENT_SET_NO":999,"REV_AT_EPOCH":20345,"BSTAR":-0.0009333700000000001,"MEAN_MOTION_DOT":-3.13e-06,"MEAN_MOTION_DDOT":0.0},{"OBJECT_NAME":"ONEWEB-0439","OBJECT_ID":"2022-012P","EPOCH":"2026-05-03T04:59:08.965824","MEAN_MOTION":13.1037688,"ECCENTRICITY":0.000198,"INCLINATION":87.8857,"RA_OF_ASC_NODE":45.2195,"ARG_OF_PERICENTER":79.7896,"MEAN_ANOMALY":280.3455,"EPHEMERIS_TYPE":0,"CLASSIFICATION_TYPE":"U","NORAD_CAT_ID":51635,"ELEMENT_SET_NO":999,"REV_AT_EPOCH":20343,"BSTAR":-0.00050663,"MEAN_MOTION_DOT":-1.64e-06,"MEAN_MOTION_DDOT":0.0},{"OBJECT_NAME":"ONEWEB-0442","OBJECT_ID":"2022-012Q","EPOCH":"2026-05-03T06:00:35.677152","MEAN_MOTION":13.17649278,"ECCENTRICITY":0.0001778,"INCLINATION":87.9179,"RA_OF_ASC_NODE":14.8085,"ARG_OF_PERICENTER":99.7293,"MEAN_ANOMALY":260.4039,"EPHEMERIS_TYPE":0,"CLASSIFICATION_TYPE":"U","NORAD_CAT_ID":51636,"ELEMENT_SET_NO":999,"REV_AT_EPOCH":20775,"BSTAR":0.00012469,"MEAN_MOTION_DOT":6.1e-07,"MEAN_MOTION_DDOT":0.0},{"OBJECT_NAME":"ONEWEB-0443","OBJECT_ID":"2022-012R","EPOCH":"2026-05-03T04:39:11.514528","MEAN_MOTION":13.1764914,"ECCENTRICITY":0.0002171,"INCLINATION":87.9175,"RA_OF_ASC_NODE":14.8217,"ARG_OF_PERICENTER":83.844,"MEAN_ANOMALY":276.2939,"EPHEMERIS_TYPE":0,"CLASSIFICATION_TYPE":"U","NORAD_CAT_ID":51637,"ELEMENT_SET_NO":999,"REV_AT_EPOCH":20779,"BSTAR":0.00010241,"MEAN_MOTION_DOT":5.3e-07,"MEAN_MOTION_DDOT":0.0},{"OBJECT_NAME":"ONEWEB-0444","OBJECT_ID":"2022-012S","EPOCH":"2026-05-03T04:44:48.913440","MEAN_MOTION":13.10374716,"ECCENTRICITY":0.0002014,"INCLINATION":87.8854,"RA_OF_ASC_NODE":45.2205,"ARG_OF_PERICENTER":80.5705,"MEAN_ANOMALY":279.565,"EPHEMERIS_TYPE":0,"CLASSIFICATION_TYPE":"U","NORAD_CAT_ID":51638,"ELEMENT_SET_NO":999,"REV_AT_EPOCH":20344,"BSTAR":-0.0016275999999999999,"MEAN_MOTION_DOT":-5.55e-06,"MEAN_MOTION_DDOT":0.0},{"OBJECT_NAME":"ONEWEB-0445","OBJECT_ID":"2022-012T","EPOCH":"2026-05-03T05:15:53.549856","MEAN_MOTION":13.10378104,"ECCENTRICITY":0.0001649,"INCLINATION":87.8865,"RA_OF_ASC_NODE":45.1999,"ARG_OF_PERICENTER":75.3548,"MEAN_ANOMALY":284.7762,"EPHEMERIS_TYPE":0,"CLASSIFICATION_TYPE":"U","NORAD_CAT_ID":51639,"ELEMENT_SET_NO":999,"REV_AT_EPOCH":20345,"BSTAR":0.0010875,"MEAN_MOTION_DOT":3.92e-06,"MEAN_MOTION_DDOT":0.0},{"OBJECT_NAME":"ONEWEB-0446","OBJECT_ID":"2022-012U","EPOCH":"2026-05-03T04:42:24.494976","MEAN_MOTION":13.10373494,"ECCENTRICITY":0.0001712,"INCLINATION":87.8856,"RA_OF_ASC_NODE":45.2368,"ARG_OF_PERICENTER":78.1761,"MEAN_ANOMALY":281.9558,"EPHEMERIS_TYPE":0,"CLASSIFICATION_TYPE":"U","NORAD_CAT_ID":51640,"ELEMENT_SET_NO":999,"REV_AT_EPOCH":20343,"BSTAR":-0.0018317000000000001,"MEAN_MOTION_DOT":-6.27e-06,"MEAN_MOTION_DDOT":0.0},{"OBJECT_NAME":"ONEWEB-0448","OBJECT_ID":"2022-012V","EPOCH":"2026-05-03T04:49:33.640320","MEAN_MOTION":13.10373304,"ECCENTRICITY":0.0001966,"INCLINATION":87.8853,"RA_OF_ASC_NODE":45.2332,"ARG_OF_PERICENTER":78.8517,"MEAN_ANOMALY":281.2831,"EPHEMERIS_TYPE":0,"CLASSIFICATION_TYPE":"U","NORAD_CAT_ID":51641,"ELEMENT_SET_NO":999,"REV_AT_EPOCH":20340,"BSTAR":-0.0014406,"MEAN_MOTION_DOT":-4.9e-06,"MEAN_MOTION_DDOT":0.0},{"OBJECT_NAME":"ONEWEB-0449","OBJECT_ID":"2022-012W","EPOCH":"2026-05-03T04:56:45.448512","MEAN_MOTION":13.10376009,"ECCENTRICITY":0.0002028,"INCLINATION":87.8864,"RA_OF_ASC_NODE":45.2159,"ARG_OF_PERICENTER":91.662,"MEAN_ANOMALY":268.474,"EPHEMERIS_TYPE":0,"CLASSIFICATION_TYPE":"U","NORAD_CAT_ID":51642,"ELEMENT_SET_NO":999,"REV_AT_EPOCH":20341,"BSTAR":-0.00078527,"MEAN_MOTION_DOT":-2.61e-06,"MEAN_MOTION_DDOT":0.0},{"OBJECT_NAME":"ONEWEB-0451","OBJECT_ID":"2022-012X","EPOCH":"2026-05-03T04:17:18.976704","MEAN_MOTION":13.17651077,"ECCENTRICITY":0.0001866,"INCLINATION":87.9188,"RA_OF_ASC_NODE":14.7835,"ARG_OF_PERICENTER":88.197,"MEAN_ANOMALY":271.9376,"EPHEMERIS_TYPE":0,"CLASSIFICATION_TYPE":"U","NORAD_CAT_ID":51643,"ELEMENT_SET_NO":999,"REV_AT_EPOCH":20773,"BSTAR":0.00014235999999999999,"MEAN_MOTION_DOT":6.8e-07,"MEAN_MOTION_DDOT":0.0},{"OBJECT_NAME":"ONEWEB-0452","OBJECT_ID":"2022-012Y","EPOCH":"2026-05-03T06:04:13.343808","MEAN_MOTION":13.17648158,"ECCENTRICITY":0.0002098,"INCLINATION":87.9177,"RA_OF_ASC_NODE":14.8101,"ARG_OF_PERICENTER":86.2201,"MEAN_ANOMALY":273.9171,"EPHEMERIS_TYPE":0,"CLASSIFICATION_TYPE":"U","NORAD_CAT_ID":51644,"ELEMENT_SET_NO":999,"REV_AT_EPOCH":20775,"BSTAR":0.0001183,"MEAN_MOTION_DOT":5.9e-07,"MEAN_MOTION_DDOT":0.0},{"OBJECT_NAME":"ONEWEB-0456","OBJECT_ID":"2022-012AA","EPOCH":"2026-05-03T05:11:06.791712","MEAN_MOTION":13.10376883,"ECCENTRICITY":0.0001982,"INCLINATION":87.8868,"RA_OF_ASC_NODE":45.1973,"ARG_OF_PERICENTER":75.0017,"MEAN_ANOMALY":285.133,"EPHEMERIS_TYPE":0,"CLASSIFICATION_TYPE":"U","NORAD_CAT_ID":51646,"ELEMENT_SET_NO":999,"REV_AT_EPOCH":20345,"BSTAR":0.00064245,"MEAN_MOTION_DOT":2.37e-06,"MEAN_MOTION_DDOT":0.0}]